ONEWEB-0306             
1 49188U 21083C   24003.80097805  .00000062  00000+0  12497-3 0  9993
2 49188  87.9228 153.5955 0001235 102.7003 257.4267 13.18684964113294
ONEWEB-0307             
1 49189U 21083D   24003.38718970 -.00000068  00000+0 -22057-3 0  9991
2 49189  87.9011 138.5407 0001526 101.4508 258.6792 13.13468533113337
ONEWEB-0320             
1 49190U 21083E   24003.80731079  .00000054  00000+0  10464-3 0  9997
2 49190  87.9228 153.6160 0001590  98.3902 261.7411 13.18686088113252
ONEWEB-0321             
1 49191U 21083F   24003.75568647  .00000385  00000+0  91419-3 0  9997
2 49191  87.9184  92.6845 0001950 108.6349 251.4996 13.20774955119913
ONEWEB-0322             
1 49192U 21083G   24003.38243063  .00000004  00000+0 -23663-4 0  9995
2 49192  87.9013 138.5302 0002014 106.4867 253.6484 13.13469985113327
ONEWEB-0324             
1 49193U 21083H   24003.48956584 -.00000089  00000+0 -25909-3 0  9994
2 49193  87.9228 153.6618 0001681  85.6708 274.4616 13.18685722111954
ONEWEB-0325             
1 49194U 21083J   24003.49432750  .00001335  00000+0  33519-2 0  9998
2 49194  87.9218 153.6751 0001675 103.9715 256.1604 13.18684042111966
ONEWEB-0326             
1 49195U 21083K   24003.81203172  .00000032  00000+0  48827-4 0  9992
2 49195  87.9226 153.6130 0001153  75.4985 284.6275 13.18683363113271
